PLEIADES NEO 3          
1 48268U 21034A   26186.62198091  .00000214  00000+0  33853-4 0  9999
2 48268  97.8933 261.1234 0001331  91.7672 268.3694 14.81673458280384
PLEIADES NEO 4          
1 49070U 21073E   26186.65573703  .00000324  00000+0  47801-4 0  9994
2 49070  97.8940 261.1531 0001300  99.0970 261.0390 14.81675740264103
